#aV2011 11 13  0  0   .00000000      96 DD+AD WGS84 FIT  NGA
## 1662       .00000000   900.00000000 55878  .0000000000000
+   31     1  2  3  4  5  6  7  8  9 10 11 12 13 14 15 16 17
+         18 19 20 21 22 23 25 26 27 28 29 30 31 32  0  0  0
+          0  0  0  0  0  0  0  0  0  0  0  0  0  0  0  0  0
+          0  0  0  0  0  0  0  0  0  0  0  0  0  0  0  0  0
+          0  0  0  0  0  0  0  0  0  0  0  0  0  0  0  0  0
++         0  0  0  0  0  0  0  0  0  0  0  0  0  0  0  0  0
++         0  0  0  0  0  0  0  0  0  0  0  0  0  0  0  0  0
++         0  0  0  0  0  0  0  0  0  0  0  0  0  0  0  0  0
++         0  0  0  0  0  0  0  0  0  0  0  0  0  0  0  0  0
++         0  0  0  0  0  0  0  0  0  0  0  0  0  0  0  0  0
%c cc cc ccc ccc cccc cccc cccc cccc ccccc ccccc ccccc ccccc
%c cc cc ccc ccc cccc cccc cccc cccc ccccc ccccc ccccc ccccc
%f  0.0000000  0.000000000  0.00000000000  0.000000000000000
%f  0.0000000  0.000000000  0.00000000000  0.000000000000000
%i    0    0    0    0      0      0      0      0         0
%i    0    0    0    0      0      0      0      0         0
/*      NGA, ST. LOUIS,MO.                                  
/*   EPHEMERIS COMPUTED FROM  3 DAYS OF DATA                
/* CCCCCCCCCCCCCCCCCCCCCCCCCCCCCCCCCCCCCCCCCCCCCCCCCCCCCCCCC
/* CCCCCCCCCCCCCCCCCCCCCCCCCCCCCCCCCCCCCCCCCCCCCCCCCCCCCCCCC
*  2011 11 13  5  0   .00000000                                                 
P  1 -19384.423823  -7723.540752  16420.456408     90.491028                    
V  1 -10399.630990 -18202.050242 -20812.331385       .217426                    
P  2  13619.425096  22935.843935   2979.279398    365.376561                    
V  2  -4598.411828  -1206.553863  30636.995130       .017952                    
P  3 -12300.639012 -12853.631107 -20250.811329    794.338526                    
V  3  24010.543753  -6179.243824 -10615.325446       .050532                    
P  4   2492.234276  22020.094911  14156.943345      2.396313                    
V  4 -12924.497899 -13656.472947  23468.566255       .112454                    
P  5   6851.548721  17134.517743 -19076.456269   -244.511909                    
V  5 -11789.172507  21246.407107  14983.757599      -.049882                    
P  6  -7482.992765 -14488.641335 -20867.717615      1.674723                    
V  6  26536.158889  -4190.985804  -6306.962779       .056723                    
P  7 -13443.147757   6614.902554 -21922.635268     37.079928                    
V  7 -15396.657804 -23176.982329   2209.024822       .021872                    
P  8  -6295.030759  15628.629890 -20310.027700       .067918                    
V  8 -13522.214394 -22222.068713 -13429.009272       .001448                    
P  9  19264.195622  11888.840751  13323.316293    118.014718                    
V  9   8792.304196  15590.837591 -25608.186715       .024846                    
P 10  -8338.584995  24533.461191  -5015.074620    -18.905835                    
V 10  -5848.070188   3954.347774  30852.246364      -.011498                    
P 11 -22903.419439 -10775.599553   8212.079064   -203.501306                    
V 11  -5426.342356 -10510.298490 -27363.427087      -.034689                    
P 12  15970.324111     53.857746  21197.163609     34.393644                    
V 12 -11467.077976  24326.188093   8748.605609       .023055                    
P 13 -24881.190391   5091.456160  -8058.067265    241.731589                    
V 13  -9979.757533  -1823.219915  30086.767231      -.019712                    
P 14   9090.293010 -14056.662168  20763.018659    181.017721                    
V 14  25951.158161    376.116103 -11343.461910       .017950                    
P 15  24005.411846   5132.809037 -10370.747692    -99.514845                    
V 15 -12815.113386   3965.265160 -27490.002950       .011066                    
P 16  -5746.657787 -17085.792175 -19384.733263   -208.589437                    
V 16  12583.912650 -21288.965700  15308.862351      -.020179                    
P 17  -9987.657769  14428.545585  20012.331014    165.977349                    
V 17 -25188.429336    -80.938031 -12840.729384      -.019514                    
P 18  16754.831255 -17781.482794  -9617.947093    166.835136                    
V 18  -2387.299569  13171.668776 -27909.780940       .018456                    
P 19 -22091.171555  -8785.314906 -12246.947102   -204.343482                    
V 19  15386.250269  -1975.853038 -26044.316206      -.039706                    
P 20 -16901.780822   1199.483472  20287.727700     56.019385                    
V 20   9274.073064 -24556.156979   9180.722774       .006891                    
P 21  11508.533224 -10741.741730 -20908.654144   -184.151523                    
V 21  16070.144770  22635.845801  -3321.046801      -.024480                    
P 22   9506.831807 -24541.720393   3278.378898    143.478222                    
V 22   5213.534881  -1852.026419 -30745.938971      -.000088                    
P 23 -26671.798013    212.479239   2180.019158    259.806180                    
V 23   2542.119718  -2620.123901  31392.854483      -.032455                    
P 25  17630.272362 -11538.977546  16124.644830     27.422856                    
V 25  -6999.025425  19376.159117  21514.709709       .012867                    
P 26  14359.645467  12734.528429 -19126.869041   -224.273352                    
V 26 -22844.238000    621.647510 -16908.587635      -.134359                    
P 27  19633.462591  16106.135773   9088.158655    325.109227                    
V 27   5065.055508   9316.096497 -29185.947534       .039187                    
P 28 -12003.755967  23535.140332    770.672673     83.783462                    
V 28  -2380.166078   -889.510432 -32259.624169       .032814                    
P 29  24948.854446  -5745.454256  -6931.953689    256.946218                    
V 29   8985.642635   2357.483428  30150.580804       .033562                    
P 30   4818.536376 -25559.874799  -5861.063512     50.008142                    
V 30   4923.761452  -5617.089312  30508.446684      -.086483                    
P 31  -5563.875039 -22983.546376  12072.321675    168.677684                    
V 31   9953.845907  11466.316883  27081.418273       .050793                    
P 32 -12683.969474  -8951.340949  21812.190602   -360.883213                    
V 32  13722.749379 -23388.837293  -1190.986933      -.060663                    
EOF
